[{"OBJECT_NAME":"STARLINK-36143","OBJECT_ID":"2025-294AC","EPOCH":"2026-03-09T07:35:34.890720","MEAN_MOTION":15.27577073,"ECCENTRICITY":0.00015423,"INCLINATION":43.0039,"RA_OF_ASC_NODE":40.049,"ARG_OF_PERICENTER":252.6337,"MEAN_ANOMALY":107.4346,"EPHEMERIS_TYPE":0,"CLASSIFICATION_TYPE":"U","NORAD_CAT_ID":67056,"ELEMENT_SET_NO":999,"REV_AT_EPOCH":1474,"BSTAR":0.00065286204,"MEAN_MOTION_DOT":0.00017745,"MEAN_MOTION_DDOT":0},{"OBJECT_NAME":"CZ-4B R\/B","OBJECT_ID":"2004-035C","EPOCH":"2026-03-09T23:23:31.358400","MEAN_MOTION":15.2906998,"ECCENTRICITY":0.00309852,"INCLINATION":97.3501,"RA_OF_ASC_NODE":103.2135,"ARG_OF_PERICENTER":330.5139,"MEAN_ANOMALY":29.4353,"EPHEMERIS_TYPE":0,"CLASSIFICATION_TYPE":"U","NORAD_CAT_ID":28415,"ELEMENT_SET_NO":999,"REV_AT_EPOCH":17995,"BSTAR":0.00034109099,"MEAN_MOTION_DOT":9.691e-5,"MEAN_MOTION_DDOT":0}]
